1 40271U 14062A   21253.37058462 -.00000156  00000-0  00000-0 0  9998
2 40271   0.0180 205.9610 0002296 222.6756 319.3498  1.00269616 25136
1 40271U 14062A   21253.37058462 -.00000157  00000-0  00000+0 0  9998
2 40271   0.0180 205.9610 0002296 222.6756 319.3498  1.00269616 25316
1 40271U 14062A   21254.42414306 -.00000158  00000-0  00000+0 0  9999
2 40271   0.0140 216.7670 0002323 212.8234 338.7130  1.00269084 25329
1 40271U 14062A   21254.52828039 -.00000158  00000-0  00000-0 0  9993
2 40271   0.0150 213.8446 0002316 218.0825  13.9690  1.00270709 25144
1 40271U 14062A   21254.52828039 -.00000158  00000-0  00000+0 0  9992
2 40271   0.0150 213.8446 0002316 218.0825  13.9690  1.00270709 25324
1 40271U 14062A   21255.53310353 -.00000160  00000-0  00000-0 0  9993
2 40271   0.0123 231.0344 0002374 201.6500  15.9368  1.00270729 25152
1 40271U 14062A   21255.60488407 -.00000161  00000-0  00000+0 0  9997
2 40271   0.0123 230.7701 0002373 202.2260  41.5367  1.00270855 25338
1 40271U 14062A   21255.89198604 -.00000161  00000-0  00000-0 0  9996
2 40271   0.0148 215.2469 0002366 219.0454 143.8805  1.00271371 25165
1 40271U 14062A   21256.03552392 -.00000162  00000-0  00000+0 0  9991
2 40271   0.0154 211.4499 0002402 222.8143 195.7231  1.00271143 25336
1 40271U 14062A   21256.41999059 -.00000163  00000-0  00000+0 0  9999
2 40271   0.0148 240.0822 0002459 192.5710 336.1198  1.00270075 25349
1 40271U 14062A   21256.53798764 -.00000163  00000-0  00000-0 0  9993
2 40271   0.0138 238.1871 0002474 194.2975  18.8828  1.00269863 25166
1 40271U 14062A   21257.09626032 -.00000166  00000-0  00000+0 0  9995
2 40271   0.0151 218.0391 0002404 216.5177 218.3392  1.00271291 25341
1 40271U 14062A   21257.42772973 -.00000166  00000-0  00000+0 0  9998
2 40271   0.0123 231.1367 0002413 205.6235 335.7871  1.00268994 25356
1 40271U 14062A   21257.58127613 -.00000167  00000-0  00000-0 0  9992
2 40271   0.0142 221.1078 0002444 215.7782  31.0878  1.00268799 25185
1 40271U 14062A   21257.90153583 -.00000168  00000-0  00000+0 0  9993
2 40271   0.0164 210.3680 0002376 227.7195 145.4937  1.00269646 25350
1 40271U 14062A   21258.44108262 -.00000170  00000-0  00000-0 0  9991
2 40271   0.0172 201.0541 0002307 237.1551 340.1371  1.00269645 25183
1 40271U 14062A   21258.83462138 -.00000171  00000-0  00000-0 0  9990
2 40271   0.0208 166.2456 0002248 273.4018 120.7547  1.00268093 25199
1 40271U 14062A   21259.11405205 -.00000172  00000-0  00000+0 0  9994
2 40271   0.0218 166.1599 0002246 273.7200 221.3915  1.00268013 25369
1 40271U 14062A   21259.48055887 -.00000173  00000-0  00000+0 0  9992
2 40271   0.0219 168.3537 0002183 269.3387 355.8890  1.00270721 25378
1 40271U 14062A   21259.48055887 -.00000173  00000-0  00000-0 0  9993
2 40271   0.0219 168.3537 0002183 269.3387 355.8890  1.00270721 25198
1 40271U 14062A   21263.52993112 -.00000171  00000-0  00000+0 0  9992
2 40271   0.0124 234.2217 0002241 201.9508  19.1862  1.00272133 25416
1 40271U 14062A   21263.70000000 -.00000170  00000-0  00000-0 0  9997
2 40271   0.0050 288.7880 0002338 150.2270  77.7280  1.00272588 25411
1 40271U 14062A   21264.10937118 -.00000169  00000-0  00000+0 0  9998
2 40271   0.0168 222.4305 0002188 214.2890 227.8103  1.00272463 25414
1 40271U 14062A   21264.50285392 -.00000167  00000-0  00000+0 0  9990
2 40271   0.0114 233.0211 0002148 204.8259   8.7216  1.00269909 25422
1 40271U 14062A   21265.16652090 -.00000165  00000-0  00000+0 0  9994
2 40271   0.0181 220.6713 0002085 219.1610 246.3101  1.00271173 25424
1 40271U 14062A   21265.46945149 -.00000163  00000-0  00000-0 0  9996
2 40271   0.0199 216.8589 0002040 222.6771 355.9600  1.00271305 25258
1 40271U 14062A   21265.55344271 -.00000163  00000-0  00000-0 0  9995
2 40271   0.0203 216.0800 0002031 223.3976  26.3376  1.00271240 25265
1 40271U 14062A   21266.23068338 -.00000160  00000-0  00000+0 0  9994
2 40271   0.0220 196.1656 0001726 239.2880 274.8221  1.00268854 25436
1 40271U 14062A   21266.50962837 -.00000160  00000-0  00000+0 0  9991
2 40271   0.0199 217.7687 0001973 217.2628  15.9546  1.00272675 25446
1 40271U 14062A   21266.87347875 -.00000158  00000-0  00000-0 0  9998
2 40271   0.0211 215.9964 0002008 219.0913 147.2440  1.00272392 25275
1 40271U 14062A   21267.51941611 -.00000157  00000-0  00000-0 0  9997
2 40271   0.0168 223.3365 0001962 211.1494  21.0221  1.00272602 25279
1 40271U 14062A   21267.59119663 -.00000156  00000-0  00000+0 0  9997
2 40271   0.0172 222.6176 0002011 209.2574  49.5432  1.00270929 25458
1 40271U 14062A   21268.30100163 -.00000154  00000-0  00000-0 0  9991
2 40271   0.0114 240.0390 0001843 189.9049 307.7049  1.00269516 25283
1 40271U 14062A   21268.43625789 -.00000154  00000-0  00000+0 0  9990
2 40271   0.0115 241.5165 0001994 190.0384 354.9218  1.00271367 25461
1 40271U 14062A   21268.50446466 -.00000154  00000-0  00000-0 0  9992
2 40271   0.0113 240.5236 0001990 190.9229  19.6517  1.00271356 25285
1 40271U 14062A   21269.02674524 -.00000154  00000-0  00000+0 0  9997
2 40271   0.0154 228.1073 0001950 205.3286 206.2007  1.00272659 25466
1 40271U 14062A   21269.52920882 -.00000153  00000-0  00000-0 0  9993
2 40271   0.0122 244.1119 0001973 189.9653  26.9436  1.00272968 25309
1 40271U 14062A   21269.88802420 -.00000152  00000-0  00000-0 0  9998
2 40271   0.0118 243.4045 0001939 189.5119 157.6323  1.00272724 25306
1 40271U 14062A   21270.10339562 -.00000152  00000-0  00000+0 0  9996
2 40271   0.0121 244.1875 0001966 188.5573 235.5497  1.00272372 25477
1 40271U 14062A   21270.53399149 -.00000152  00000-0  00000+0 0  9990
2 40271   0.0146 248.7205 0001985 184.2799  30.7349  1.00272629 25482
1 40271U 14062A   21270.60577200 -.00000152  00000-0  00000-0 0  9995
2 40271   0.0147 248.5574 0001977 183.4445  57.6447  1.00272201 25315
1 40271U 14062A   21271.32354838 -.00000152  00000-0  00000+0 0  9994
2 40271   0.0152 250.9366 0001955 184.7431 313.0734  1.00271435 25497
1 40271U 14062A   21272.33057955 -.00000152  00000-0  00000+0 0  9996
2 40271   0.0108 245.3231 0001867 188.5209 318.4292  1.00270825 25506
1 40271U 14062A   21272.54376493 -.00000152  00000-0  00000-0 0  9991
2 40271   0.0157 230.3875 0001847 203.3332  35.5087  1.00270774 25332
1 40271U 14062A   21273.08612622 -.00000153  00000-0  00000+0 0  9998
2 40271   0.0176 223.1063 0002010 207.9244 233.9851  1.00273931 25507
1 40271U 14062A   21273.33325329 -.00000153  00000-0  00000+0 0  9991
2 40271   0.0139 240.0472 0001947 186.9761 327.2031  1.00271589 25511
1 40271U 14062A   21273.54863198 -.00000153  00000-0  00000+0 0  9995
2 40271   0.0155 233.4162 0001828 194.7783  43.7819  1.00273621 25513
1 40271U 14062A   21273.54863198 -.00000153  00000-0  00000-0 0  9996
2 40271   0.0155 233.4162 0001828 194.7783  43.7819  1.00273621 25344
1 40271U 14062A   21273.62041250 -.00000154  00000-0  00000+0 0  9992
2 40271   0.0137 236.8675 0001526 190.5193  70.5055  1.00279121 25514
1 40271U 14062A   21274.03430690 -.00000153  00000-0  00000+0 0  9997
2 40271   0.0167 229.6600 0001900 201.6186 216.0218  1.00272684 25512
1 40271U 14062A   21274.12279263 -.00000152  00000-0  00000+0 0  9993
2 40271   0.0122 243.8041 0001664 182.6704 252.7658  1.00266721 25511
1 40271U 14062A   21274.12279263 -.00000152  00000-0  00000-0 0  9994
2 40271   0.0122 243.8041 0001664 182.6704 252.7658  1.00266721 25342
1 40271U 14062A   21274.47564633 -.00000154  00000-0  00000+0 0  9991
2 40271   0.0132 251.0688 0001746 182.4452  13.1082  1.00277656 25529
1 40271U 14062A   21274.47564633 -.00000154  00000-0  00000-0 0  9992
2 40271   0.0132 251.0688 0001746 182.4452  13.1082  1.00277656 25349
1 40271U 14062A   21274.98410324 -.00000154  00000-0  00000+0 0  9994
2 40271   0.0115 247.8448 0002038 184.3682 197.9553  1.00272591 25525
1 40271U 14062A   21274.98410324 -.00000153  00000-0  00000-0 0  9994
2 40271   0.0115 247.8448 0002038 184.3682 197.9553  1.00272591 25356
1 40271U 14062A   21276.06072391 -.00000154  00000-0  00000+0 0  9993
2 40271   0.0172 254.3198 0002105 181.0780 223.4180  1.00271150 25533
1 40271U 14062A   21276.43601392 -.00000153  00000-0  00000+0 0  9992
2 40271   0.0189 258.7153 0002342 167.0432   8.5318  1.00268135 25546
1 40271U 14062A   21276.50581677 -.00000154  00000-0  00000-0 0  9995
2 40271   0.0187 257.7919 0002211 173.1177  28.5813  1.00272192 25362
1 40271U 14062A   21276.63494817 -.00000154  00000-0  00000+0 0  9997
2 40271   0.0185 257.2794 0002163 175.4198  73.4082  1.00273499 25548
1 40271U 14062A   21276.63494817 -.00000154  00000-0  00000-0 0  9998
2 40271   0.0185 257.2794 0002163 175.4198  73.4082  1.00273499 25379
1 40271U 14062A   21277.43436310 -.00000153  00000-0  00000+0 0  9999
2 40271   0.0182 257.1547 0002256 178.5640 358.9639  1.00271066 25557
1 40271U 14062A   21277.57332938 -.00000153  00000-0  00000-0 0  9996
2 40271   0.0177 256.2574 0002218 179.2706  49.3184  1.00270735 25389
1 40271U 14062A   21278.36760473 -.00000153  00000-0  00000-0 0  9993
2 40271   0.0150 252.8935 0002199 182.6854 335.9866  1.00270579 25380
1 40271U 14062A   21278.93160715 -.00000152  00000-0  00000+0 0  9997
2 40271   0.0129 250.0474 0002197 185.2701 179.8423  1.00270411 25561
1 40271U 14062A   21279.36225826 -.00000152  00000-0  00000-0 0  9991
2 40271   0.0115 247.7512 0002209 188.1969 334.6686  1.00270307 25391
1 40271U 14062A   21279.57759990 -.00000152  00000-0  00000-0 0  9998
2 40271   0.0152 241.3347 0002229 194.5930  52.4233  1.00270281 25405
1 40271U 14062A   21280.16812425 -.00000152  00000-0  00000+0 0  9997
2 40271   0.0184 236.5413 0002264 200.3164 264.6616  1.00270203 25578
1 40271U 14062A   21280.51064992 -.00000152  00000-0  00000-0 0  9995
2 40271   0.0165 239.8781 0002286 194.2764  31.0152  1.00271907 25418
1 40271U 14062A   21280.58243046 -.00000152  00000-0  00000+0 0  9990
2 40271   0.0172 238.9169 0002292 195.3297  56.8351  1.00271915 25589
1 40271U 14062A   21280.58243046 -.00000152  00000-0  00000-0 0  9991
2 40271   0.0172 238.9169 0002292 195.3297  56.8351  1.00271915 25411
